[{"OBJECT_NAME":"STARLINK-6170","OBJECT_ID":"2023-090AE","EPOCH":"2026-03-09T22:00:01.999584","MEAN_MOTION":15.081795,"ECCENTRICITY":0.00021157,"INCLINATION":43.0006,"RA_OF_ASC_NODE":260.8246,"ARG_OF_PERICENTER":263.8758,"MEAN_ANOMALY":58.3922,"EPHEMERIS_TYPE":0,"CLASSIFICATION_TYPE":"U","NORAD_CAT_ID":57129,"ELEMENT_SET_NO":999,"REV_AT_EPOCH":577,"BSTAR":0.0049029782,"MEAN_MOTION_DOT":0.00077734,"MEAN_MOTION_DDOT":0},{"OBJECT_NAME":"OBJECT J","OBJECT_ID":"2025-292J","EPOCH":"2026-03-09T21:49:22.925568","MEAN_MOTION":15.05538385,"ECCENTRICITY":0.00147146,"INCLINATION":97.6397,"RA_OF_ASC_NODE":145.6338,"ARG_OF_PERICENTER":337.2811,"MEAN_ANOMALY":22.7762,"EPHEMERIS_TYPE":0,"CLASSIFICATION_TYPE":"U","NORAD_CAT_ID":67001,"ELEMENT_SET_NO":999,"REV_AT_EPOCH":1350,"BSTAR":0.00042553792,"MEAN_MOTION_DOT":6.079e-5,"MEAN_MOTION_DDOT":0}]
